{"type": "FeatureCollection", "features": [ {"type": "Feature", "properties": {"norad_id": 17070, "name": "POLAR BEAR", "group": "nnss", "lat": -57.24579343696514, "lon": 3.871820790355507, "alt_km": 1015.1633498897709, "timestamp": "2025-12-25T03:55:56.626327+00:00", "meta": {"OBJECT_NAME": "POLAR BEAR", "OBJECT_ID": "1986-088A", "EPOCH": "2025-12-24T18:06:18.140832", "MEAN_MOTION": 13.75253166, "ECCENTRICITY": 0.0041286, "INCLINATION": 89.617, "RA_OF_ASC_NODE": 183.2926, "ARG_OF_PERICENTER": 84.7032, "MEAN_ANOMALY": 286.2362, "EPHEMERIS_TYPE": 0, "CLASSIFICATION_TYPE": "U", "NORAD_CAT_ID": 17070, "ELEMENT_SET_NO": 999, "REV_AT_EPOCH": 96144, "BSTAR": 8.9455e-05, "MEAN_MOTION_DOT": 9.8e-07, "MEAN_MOTION_DDOT": 0}, "tle": {"line1": "1 17070U 86088A   25358.75437663  .00000098  00000+0  89455-4 0  9990", "line2": "2 17070  89.6170 183.2926 0041286  84.7032 286.2362 13.75253166961446"}}, "geometry": {"type": "Point", "coordinates": [3.871820790355507, -57.24579343696514]}}, {"type": "Feature", "properties": {"norad_id": 18361, "name": "OSCAR 27", "group": "nnss", "lat": -39.827642407249634, "lon": -100.57498806160463, "alt_km": 1031.2917932458859, "timestamp": "2025-12-25T03:55:56.626339+00:00", "meta": {"OBJECT_NAME": "OSCAR 27", "OBJECT_ID": "1987-080A", "EPOCH": "2025-12-24T17:55:02.714880", "MEAN_MOTION": 13.44909135, "ECCENTRICITY": 0.0103928, "INCLINATION": 90.3736, "RA_OF_ASC_NODE": 79.7212, "ARG_OF_PERICENTER": 189.2422, "MEAN_ANOMALY": 170.6816, "EPHEMERIS_TYPE": 0, "CLASSIFICATION_TYPE": "U", "NORAD_CAT_ID": 18361, "ELEMENT_SET_NO": 999, "REV_AT_EPOCH": 87718, "BSTAR": 0.00017485, "MEAN_MOTION_DOT": 1.14e-06, "MEAN_MOTION_DDOT": 0}, "tle": {"line1": "1 18361U 87080A   25358.74655920  .00000114  00000+0  17485-3 0  9996", "line2": "2 18361  90.3736  79.7212 0103928 189.2422 170.6816 13.44909135877187"}}, "geometry": {"type": "Point", "coordinates": [-100.57498806160463, -39.827642407249634]}}, {"type": "Feature", "properties": {"norad_id": 18362, "name": "OSCAR 29", "group": "nnss", "lat": -30.927829026425666, "lon": -100.02798645364811, "alt_km": 1020.5008266575824, "timestamp": "2025-12-25T03:55:56.626350+00:00", "meta": {"OBJECT_NAME": "OSCAR 29", "OBJECT_ID": "1987-080B", "EPOCH": "2025-12-24T18:31:37.261920", "MEAN_MOTION": 13.44450686, "ECCENTRICITY": 0.0104734, "INCLINATION": 90.3749, "RA_OF_ASC_NODE": 80.1821, "ARG_OF_PERICENTER": 212.3351, "MEAN_ANOMALY": 262.8592, "EPHEMERIS_TYPE": 0, "CLASSIFICATION_TYPE": "U", "NORAD_CAT_ID": 18362, "ELEMENT_SET_NO": 999, "REV_AT_EPOCH": 87671, "BSTAR": 0.0001699, "MEAN_MOTION_DOT": 1.1e-06, "MEAN_MOTION_DDOT": 0}, "tle": {"line1": "1 18362U 87080B   25358.77195905  .00000110  00000+0  16990-3 0  9998", "line2": "2 18362  90.3749  80.1821 0104734 212.3351 262.8592 13.44450686876714"}}, "geometry": {"type": "Point", "coordinates": [-100.02798645364811, -30.927829026425666]}}, {"type": "Feature", "properties": {"norad_id": 19070, "name": "OSCAR 23", "group": "nnss", "lat": -37.97872863998139, "lon": 17.027447013280092, "alt_km": 1304.7979486669146, "timestamp": "2025-12-25T03:55:56.626360+00:00", "meta": {"OBJECT_NAME": "OSCAR 23", "OBJECT_ID": "1988-033A", "EPOCH": "2025-12-24T19:56:45.202272", "MEAN_MOTION": 13.27789006, "ECCENTRICITY": 0.019047, "INCLINATION": 90.3203, "RA_OF_ASC_NODE": 16.7669, "ARG_OF_PERICENTER": 146.3829, "MEAN_ANOMALY": 25.8694, "EPHEMERIS_TYPE": 0, "CLASSIFICATION_TYPE": "U", "NORAD_CAT_ID": 19070, "ELEMENT_SET_NO": 999, "REV_AT_EPOCH": 82413, "BSTAR": 0.00010964, "MEAN_MOTION_DOT": 6.4e-07, "MEAN_MOTION_DDOT": 0}, "tle": {"line1": "1 19070U 88033A   25358.83107873  .00000064  00000+0  10964-3 0  9991", "line2": "2 19070  90.3203  16.7669 0190470 146.3829  25.8694 13.27789006824130"}}, "geometry": {"type": "Point", "coordinates": [17.027447013280092, -37.97872863998139]}}, {"type": "Feature", "properties": {"norad_id": 19071, "name": "OSCAR 32", "group": "nnss", "lat": 77.97668941870306, "lon": 15.402647286188778, "alt_km": 1062.505239428193, "timestamp": "2025-12-25T03:55:56.626371+00:00", "meta": {"OBJECT_NAME": "OSCAR 32", "OBJECT_ID": "1988-033B", "EPOCH": "2025-12-24T07:42:13.754592", "MEAN_MOTION": 13.27955652, "ECCENTRICITY": 0.01891926, "INCLINATION": 90.3208, "RA_OF_ASC_NODE": 16.8837, "ARG_OF_PERICENTER": 134.7211, "MEAN_ANOMALY": 237.9771, "EPHEMERIS_TYPE": 0, "CLASSIFICATION_TYPE": "U", "NORAD_CAT_ID": 19071, "ELEMENT_SET_NO": 999, "REV_AT_EPOCH": 82419, "BSTAR": 8.5937937e-05, "MEAN_MOTION_DOT": 5.3e-07, "MEAN_MOTION_DDOT": 0}, "tle": {"line1": "1 19071U 88033B   25358.32099253  .00000053  00000+0  85938-4 0  9990", "line2": "2 19071  90.3208  16.8837 0189192 134.7211 237.9771 13.27955652824199"}}, "geometry": {"type": "Point", "coordinates": [15.402647286188778, 77.97668941870306]}}, {"type": "Feature", "properties": {"norad_id": 19223, "name": "NOVA 2", "group": "nnss", "lat": 53.09939703120024, "lon": 78.27507748158335, "alt_km": 1161.1401406775467, "timestamp": "2025-12-25T03:55:56.626382+00:00", "meta": {"OBJECT_NAME": "NOVA 2", "OBJECT_ID": "1988-052A", "EPOCH": "2025-12-24T19:11:53.971008", "MEAN_MOTION": 13.22937139, "ECCENTRICITY": 0.0029544, "INCLINATION": 89.9863, "RA_OF_ASC_NODE": 78.2573, "ARG_OF_PERICENTER": 343.513, "MEAN_ANOMALY": 137.1394, "EPHEMERIS_TYPE": 0, "CLASSIFICATION_TYPE": "U", "NORAD_CAT_ID": 19223, "ELEMENT_SET_NO": 999, "REV_AT_EPOCH": 81107, "BSTAR": 0.00014443, "MEAN_MOTION_DOT": 6.9e-07, "MEAN_MOTION_DDOT": 0}, "tle": {"line1": "1 19223U 88052A   25358.79993022  .00000069  00000+0  14443-3 0  9997", "line2": "2 19223  89.9863  78.2573 0029544 343.5130 137.1394 13.22937139811072"}}, "geometry": {"type": "Point", "coordinates": [78.27507748158335, 53.09939703120024]}}, {"type": "Feature", "properties": {"norad_id": 19419, "name": "OSCAR 25", "group": "nnss", "lat": -70.56104346688835, "lon": 20.37964098217034, "alt_km": 1093.3218141516954, "timestamp": "2025-12-25T03:55:56.626392+00:00", "meta": {"OBJECT_NAME": "OSCAR 25", "OBJECT_ID": "1988-074A", "EPOCH": "2025-12-24T13:00:49.693248", "MEAN_MOTION": 13.42625466, "ECCENTRICITY": 0.0095161, "INCLINATION": 90.0336, "RA_OF_ASC_NODE": 20.2823, "ARG_OF_PERICENTER": 211.7174, "MEAN_ANOMALY": 313.9542, "EPHEMERIS_TYPE": 0, "CLASSIFICATION_TYPE": "U", "NORAD_CAT_ID": 19419, "ELEMENT_SET_NO": 999, "REV_AT_EPOCH": 82798, "BSTAR": 0.00013246, "MEAN_MOTION_DOT": 8.6e-07, "MEAN_MOTION_DDOT": 0}, "tle": {"line1": "1 19419U 88074A   25358.54224182  .00000086  00000+0  13246-3 0  9994", "line2": "2 19419  90.0336  20.2823 0095161 211.7174 313.9542 13.42625466827989"}}, "geometry": {"type": "Point", "coordinates": [20.37964098217034, -70.56104346688835]}}, {"type": "Feature", "properties": {"norad_id": 19420, "name": "OSCAR 31", "group": "nnss", "lat": 10.042004152320276, "lon": -159.35738123701347, "alt_km": 1043.1378863661794, "timestamp": "2025-12-25T03:55:56.626403+00:00", "meta": {"OBJECT_NAME": "OSCAR 31", "OBJECT_ID": "1988-074B", "EPOCH": "2025-12-24T20:48:18.577152", "MEAN_MOTION": 13.42586519, "ECCENTRICITY": 0.0093579, "INCLINATION": 90.0354, "RA_OF_ASC_NODE": 20.6353, "ARG_OF_PERICENTER": 204.9262, "MEAN_ANOMALY": 331.0281, "EPHEMERIS_TYPE": 0, "CLASSIFICATION_TYPE": "U", "NORAD_CAT_ID": 19420, "ELEMENT_SET_NO": 999, "REV_AT_EPOCH": 82813, "BSTAR": 0.00010318, "MEAN_MOTION_DOT": 6.9e-07, "MEAN_MOTION_DDOT": 0}, "tle": {"line1": "1 19420U 88074B   25358.86688168  .00000069  00000+0  10318-3 0  9997", "line2": "2 19420  90.0354  20.6353 0093579 204.9262 331.0281 13.42586519828130"}}, "geometry": {"type": "Point", "coordinates": [-159.35738123701347, 10.042004152320276]}}]}